0 IRIDIUM 33 DEB
1 37136U 97051XG  13281.25747329  .00000714  00000-0  33126-3 0  1954
2 37136 086.1723 108.8054 0088652 112.5774 248.4974 14.17215902226449
0 IRIDIUM 33 DEB
1 37136U 97051XG  13283.79924177  .00000739  00000-0  34299-3 0  1963
2 37136 086.1723 107.7077 0088650 104.5349 256.5808 14.17220335226801
0 IRIDIUM 33 DEB
1 37136U 97051XG  13285.77616681  .00000768  00000-0  35648-3 0  1973
2 37136 086.1745 106.8600 0089557 098.6079 262.5468 14.17224089227087
0 IRIDIUM 33 DEB
1 37136U 97051XG  13287.25885337  .00000772  00000-0  35858-3 0  1983
2 37136 086.1742 106.2186 0090048 094.0889 267.0646 14.17226477227297
0 IRIDIUM 33 DEB
1 37136U 97051XG  13290.22422210  .00000809  00000-0  37560-3 0  1995
2 37136 086.1746 104.9388 0090981 085.6427 275.5515 14.17232177227710
0 IRIDIUM 33 DEB
1 37136U 97051XG  13291.77749677  .00000833  00000-0  38717-3 0  2000
2 37136 086.1733 104.2649 0090510 080.4297 280.7333 14.17235475227939
0 IRIDIUM 33 DEB
1 37136U 97051XG  13293.75438905  .00000919  00000-0  42833-3 0  2019
2 37136 086.1733 103.4113 0090508 074.1742 287.0410 14.17242041228213
